NORAD_CAT_ID,OBJECT_NAME,OBJECT_TYPE,EPOCH,MEAN_MOTION,ECCENTRICITY,INCLINATION,RA_OF_ASC_NODE,ARG_OF_PERICENTER,MEAN_ANOMALY,BSTAR,MEAN_MOTION_DOT,MEAN_MOTION_DDOT,TLE_LINE0,TLE_LINE1,TLE_LINE2,SEMIMAJOR_AXIS,PERIOD,APOGEE,PERIGEE,DECAYED
55649.0,STARLINK-5469,PAYLOAD,2023-11-26 14:10:32,14.98329387,0.0003006,69.9987,127.4297,269.0953,90.9862,-2.2113e-05,-3.57e-06,0.0,0 STARLINK-5469,1 55649U 23021X   23330.59065969 -.00000357  00000-0 -22113-4 0  9997,2 55649  69.9987 127.4297 0003006 269.0953  90.9862 14.98329387 43852,6950.195,96.107,574.149,569.971,0.0
55649.0,STARLINK-5469,PAYLOAD,2023-11-26 18:58:57,14.98323811,0.0002996,69.999,126.9248,268.8337,91.2479,-7.211e-05,-9.53e-06,0.0,0 STARLINK-5469,1 55649U 23021X   23330.79094484 -.00000953  00000-0 -72110-4 0  9997,2 55649  69.9990 126.9248 0002996 268.8337  91.2479 14.98323811 43580,6950.212,96.107,574.159,569.995,0.0
55649.0,STARLINK-5469,PAYLOAD,2023-11-26 20:35:05,14.9832407,0.0002994,69.999,126.7566,268.7631,91.3185,-6.8622e-05,-9.12e-06,0.0,0 STARLINK-5469,1 55649U 23021X   23330.85770470 -.00000912  00000-0 -68622-4 0  9998,2 55649  69.9990 126.7566 0002994 268.7631  91.3185 14.98324070 43892,6950.211,96.107,574.157,569.995,0.0
55649.0,STARLINK-5469,PAYLOAD,2023-11-27 12:36:25,14.98332843,0.0003143,69.9987,125.0727,269.0363,91.0436,-7.7973e-05,-1.023e-05,0.0,0 STARLINK-5469,1 55649U 23021X   23331.52529990 -.00001023  00000-0 -77973-4 0  9995,2 55649  69.9987 125.0727 0003143 269.0363  91.0436 14.98332843 43693,6950.184,96.107,574.234,569.865,0.0
55649.0,STARLINK-5469,PAYLOAD,2023-11-27 14:12:33,14.98333078,0.0003136,69.9987,124.9043,269.0917,90.9883,-7.22e-05,-9.54e-06,0.0,0 STARLINK-5469,1 55649U 23021X   23331.59205949 -.00000954  00000-0 -72200-4 0  9997,2 55649  69.9987 124.9043 0003136 269.0917  90.9883 14.98333078 44000,6950.183,96.107,574.228,569.869,0.0
55649.0,STARLINK-5469,PAYLOAD,2023-11-27 20:37:05,14.98335021,0.0003126,69.9989,124.2313,268.0466,92.0336,1.6798e-05,1.07e-06,0.0,0 STARLINK-5469,1 55649U 23021X   23331.85909511  .00000107  00000-0  16798-4 0  9990,2 55649  69.9989 124.2313 0003126 268.0466  92.0336 14.98335021 44042,6950.177,96.107,574.215,569.87,0.0
55649.0,STARLINK-5469,PAYLOAD,2023-11-28 14:14:34,14.98325862,0.0002979,69.9997,122.3804,267.5344,92.5474,6.697e-05,7.06e-06,0.0,0 STARLINK-5469,1 55649U 23021X   23332.59345916  .00000706  00000-0  66970-4 0  9997,2 55649  69.9997 122.3804 0002979 267.5344  92.5474 14.98325862 44151,6950.206,96.107,574.141,570.0,0.0
55649.0,STARLINK-5469,PAYLOAD,2023-11-28 19:02:58,14.98331041,0.0002685,69.9999,121.8753,261.8678,98.2177,8.7469e-05,9.51e-06,0.0,0 STARLINK-5469,1 55649U 23021X   23332.79373527  .00000951  00000-0  87469-4 0  9996,2 55649  69.9999 121.8753 0002685 261.8678  98.2177 14.98331041 43889,6950.19,96.107,573.921,570.189,0.0
55649.0,STARLINK-5469,PAYLOAD,2023-11-29 14:16:35,14.98347057,0.0002828,70.0004,119.8571,267.8954,92.1881,-0.00029678,-3.634e-05,0.0,0 STARLINK-5469,1 55649U 23021X   23333.59485536 -.00003634  00000-0 -29678-3 0  9999,2 55649  70.0004 119.8571 0002828 267.8954  92.1881 14.98347057 44303,6950.14,96.106,573.971,570.04,0.0
55649.0,STARLINK-5469,PAYLOAD,2023-11-29 19:04:59,14.9833155,0.0003012,69.9997,119.3505,270.154,89.9274,2.5882e-05,2.16e-06,0.0,0 STARLINK-5469,1 55649U 23021X   23333.79513582  .00000216  00000-0  25882-4 0  9999,2 55649  69.9997 119.3505 0003012 270.1540  89.9274 14.98331550 44038,6950.188,96.107,574.146,569.96,0.0
55649.0,STARLINK-5469,PAYLOAD,2023-11-30 19:07:01,14.98331713,0.0002722,70.0003,116.8272,264.7835,95.3013,-0.00012426,-1.575e-05,0.0,0 STARLINK-5469,1 55649U 23021X   23334.79653982 -.00001575  00000-0 -12426-3 0  9999,2 55649  70.0003 116.8272 0002722 264.7835  95.3013 14.98331713 44184,6950.188,96.107,573.944,570.161,0.0
55649.0,STARLINK-5469,PAYLOAD,2023-12-01 19:09:02,14.98326751,0.0002808,70.0002,114.3022,264.1392,95.9447,1.1689e-05,4.6e-07,0.0,0 STARLINK-5469,1 55649U 23021X   23335.79793999  .00000046  00000-0  11689-4 0  9994,2 55649  70.0002 114.3022 0002808 264.1392  95.9447 14.98326751 44336,6950.203,96.107,574.02,570.116,0.0
55649.0,STARLINK-5469,PAYLOAD,2023-12-02 11:10:21,14.98338059,0.0002968,69.9995,112.6169,274.1583,85.9237,0.00014856,1.68e-05,0.0,0 STARLINK-5469,1 55649U 23021X   23336.46552764  .00001680  00000-0  14856-3 0  9995,2 55649  69.9995 112.6169 0002968 274.1583  85.9237 14.98338059 44438,6950.168,96.106,574.096,569.97,0.0
55649.0,STARLINK-5469,PAYLOAD,2023-12-02 14:22:37,14.98338037,0.0002465,70.0012,112.2838,258.8495,101.2387,0.00017496,1.996e-05,0.0,0 STARLINK-5469,1 55649U 23021X   23336.59904625  .00001996  00000-0  17496-3 0  9999,2 55649  70.0012 112.2838 0002465 258.8495 101.2387 14.98338037 44752,6950.168,96.106,573.746,570.32,0.0
55649.0,STARLINK-5469,PAYLOAD,2023-12-02 19:11:01,14.98340626,0.0002348,70.0012,111.7786,259.5051,100.5843,0.00019086,2.186e-05,0.0,0 STARLINK-5469,1 55649U 23021X   23336.79932301  .00002186  00000-0  19086-3 0  9992,2 55649  70.0012 111.7786 0002348 259.5051 100.5843 14.98340626 44783,6950.16,96.106,573.657,570.393,0.0
55649.0,STARLINK-5469,PAYLOAD,2023-12-03 11:12:25,14.98302091,0.0002819,70.001,110.0942,257.8402,102.2442,-0.00025017,-3.074e-05,0.0,0 STARLINK-5469,1 55649U 23021X   23337.46695975 -.00003074  00000-0 -25017-3 0  9990,2 55649  70.0010 110.0942 0002819 257.8402 102.2442 14.98302091 44587,6950.279,96.109,574.103,570.185,0.0
55649.0,STARLINK-5469,PAYLOAD,2023-12-03 14:24:41,14.98303349,0.0002678,70.0008,109.757,249.9565,110.1306,-0.00023869,-2.938e-05,0.0,0 STARLINK-5469,1 55649U 23021X   23337.60048012 -.00002938  00000-0 -23869-3 0  9991,2 55649  70.0008 109.7570 0002678 249.9565 110.1306 14.98303349 44901,6950.275,96.109,574.002,570.279,0.0
55649.0,STARLINK-5469,PAYLOAD,2023-12-04 11:14:25,14.98342777,0.0002931,69.9995,107.5677,254.4013,105.6823,-0.00052264,-6.325e-05,0.0,0 STARLINK-5469,1 55649U 23021X   23338.46835295 -.00006325  00000-0 -52264-3 0  9998,2 55649  69.9995 107.5677 0002931 254.4013 105.6823 14.98342777 44730,6950.153,96.106,574.055,569.981,0.0
55649.0,STARLINK-5469,PAYLOAD,2023-12-04 12:50:33,14.98322807,0.0002835,70.0002,107.4,255.5782,104.5062,-0.00018598,-2.311e-05,0.0,0 STARLINK-5469,1 55649U 23021X   23338.53511513 -.00002311  00000-0 -18598-3 0  9993,2 55649  70.0002 107.4000 0002835 255.5782 104.5062 14.98322807 45049,6950.215,96.107,574.051,570.11,0.0
55649.0,STARLINK-5469,PAYLOAD,2023-12-05 11:16:26,14.98315696,0.0002768,70.0009,105.0437,251.0983,108.9876,0.00028077,3.257e-05,0.0,0 STARLINK-5469,1 55649U 23021X   23339.46975059  .00003257  00000-0  28077-3 0  9996,2 55649  70.0009 105.0437 0002768 251.0983 108.9876 14.98315696 44883,6950.237,96.108,574.026,570.178,0.0
55649.0,STARLINK-5469,PAYLOAD,2023-12-05 12:52:34,14.98316384,0.0002653,70.0013,104.8757,243.2666,116.8222,0.0002849,3.307e-05,0.0,0 STARLINK-5469,1 55649U 23021X   23339.53651045  .00003307  00000-0  28490-3 0  9995,2 55649  70.0013 104.8757 0002653 243.2666 116.8222 14.98316384 45197,6950.235,96.108,573.944,570.256,0.0
55649.0,STARLINK-5469,PAYLOAD,2023-12-06 11:18:26,14.98339928,0.0003292,69.9995,102.516,258.4861,101.5929,0.00011296,1.255e-05,0.0,0 STARLINK-5469,1 55649U 23021X   23340.47114005  .00001255  00000-0  11296-3 0  9996,2 55649  69.9995 102.5160 0003292 258.4861 101.5929 14.98339928 45038,6950.162,96.106,574.315,569.739,0.0
55649.0,STARLINK-5469,PAYLOAD,2023-12-06 12:54:34,14.98337035,0.0003201,70.0003,102.3503,258.3982,101.6818,0.00013367,1.503e-05,0.0,0 STARLINK-5469,1 55649U 23021X   23340.53790125  .00001503  00000-0  13367-3 0  9993,2 55649  70.0003 102.3503 0003201 258.3982 101.6818 14.98337035 45342,6950.171,96.107,574.261,569.811,0.0
55649.0,STARLINK-5469,PAYLOAD,2023-12-07 11:20:27,14.98332642,0.000273,70.0013,99.996,249.9748,110.1118,-0.00013759,-1.734e-05,0.0,0 STARLINK-5469,1 55649U 23021X   23341.47254601 -.00001734  00000-0 -13759-3 0  9994,2 55649  70.0013  99.9960 0002730 249.9748 110.1118 14.98332642 45182,6950.185,96.107,573.947,570.152,0.0
55649.0,STARLINK-5469,PAYLOAD,2023-12-07 12:56:35,14.98332725,0.0002613,70.002,99.8288,236.717,123.3739,-0.00012656,-1.603e-05,0.0,0 STARLINK-5469,1 55649U 23021X   23341.53930505 -.00001603  00000-0 -12656-3 0  9995,2 55649  70.0020  99.8288 0002613 236.7170 123.3739 14.98332725 45496,6950.184,96.107,573.866,570.233,0.0
55649.0,STARLINK-5469,PAYLOAD,2023-12-08 11:22:28,14.9833595,0.0002859,70.0005,97.4696,262.2299,97.8536,-4.7408e-05,-6.59e-06,0.0,0 STARLINK-5469,1 55649U 23021X   23342.47393706 -.00000659  00000-0 -47408-4 0  9999,2 55649  70.0005  97.4696 0002859 262.2299  97.8536 14.98335950 45330,6950.174,96.107,574.027,570.052,0.0
55649.0,STARLINK-5469,PAYLOAD,2023-12-08 12:58:36,14.98343937,0.0002483,70.0013,97.3013,249.0039,111.0855,-0.00019987,-2.478e-05,0.0,0 STARLINK-5469,1 55649U 23021X   23342.54069663 -.00002478  00000-0 -19987-3 0  9990,2 55649  70.0013  97.3013 0002483 249.0039 111.0855 14.98343937 45640,6950.15,96.106,573.741,570.289,0.0
55649.0,STARLINK-5469,PAYLOAD,2023-12-09 11:24:29,14.98328373,0.0002887,70.0002,94.9437,263.3827,96.7004,2.7879e-05,2.4e-06,0.0,0 STARLINK-5469,1 55649U 23021X   23343.47533678  .00000240  00000-0  27879-4 0  9998,2 55649  70.0002  94.9437 0002887 263.3827  96.7004 14.98328373 45487,6950.198,96.107,574.069,570.056,0.0
55649.0,STARLINK-5469,PAYLOAD,2023-12-10 14:38:46,14.98331168,0.0002934,70.0002,92.0823,266.2043,93.8781,-1.3574e-05,-2.55e-06,0.0,0 STARLINK-5469,1 55649U 23021X   23344.61025553 -.00000255  00000-0 -13574-4 0  9998,2 55649  70.0002  92.0823 0002934 266.2043  93.8781 14.98331168 45958,6950.189,96.107,574.093,570.015,0.0
55649.0,STARLINK-5469,PAYLOAD,2023-12-10 17:51:02,14.98331935,0.0002973,70.0003,91.7458,267.0191,93.0627,-4.0229e-06,-1.41e-06,0.0,0 STARLINK-5469,1 55649U 23021X   23344.74377462 -.00000141  00000-0 -40229-5 0  9993,2 55649  70.0003  91.7458 0002973 267.0191  93.0627 14.98331935 45677,6950.187,96.107,574.118,569.986,0.0
